KUIPER-00008            
1 63724U 25088A   25219.53828589  .00004183  00000+0  36521-3 0  9997
2 63724  51.8918 343.2706 0011632  99.4677 260.7608 14.98713526 15939
KUIPER-00009            
1 63725U 25088B   25219.48519191 -.00076476  00000+0 -44700-2 0  9991
2 63725  51.8822 336.4057 0010136 119.0860 241.1132 15.11625055 16029
KUIPER-00010            
1 63726U 25088C   25219.52536944  .00016848  00000+0  47729-3 0  9992
2 63726  51.8648 333.0454 0009238 112.6370 247.5594 15.36345951 15691
KUIPER-00011            
1 63727U 25088D   25219.55610917  .00014306  00000+0  41346-3 0  9995
2 63727  51.8586 333.1792 0010616 121.3549 238.8477 15.35842036 15830
KUIPER-00012            
1 63728U 25088E   25219.55323254  .00014873  00000+0  42757-3 0  9997
2 63728  51.8564 333.1468 0010868 122.6083 237.5953 15.35973801 15787
KUIPER-00013            
1 63729U 25088F   25219.58335648 -.00168791  00000+0 -11101-1 0  9999
2 63729  51.8885 336.5932 0007112  74.3537 147.7150 15.07914093  4564
KUIPER-00014            
1 63730U 25088G   25219.58335648 -.00011165  00000+0 -70098-3 0  9995
2 63730  51.8839 337.6416 0008716 117.3208   4.3658 15.07901716  5726
KUIPER-00015            
1 63731U 25088H   25219.54708563  .00000280  00000+0  64488-4 0  9993
2 63731  51.9007 348.3744 0011479  93.3424 266.8852 14.81123947 15940
